ONEWEB-0414             
1 50491U 21132Y   25344.16205865 -.00000011  00000+0 -59416-4 0  9991
2 50491  87.9185  12.9756 0001921 100.1019 260.0330 13.18686233196713
ONEWEB-0417             
1 50492U 21132Z   25344.09443125  .00000020  00000+0  18034-4 0  9996
2 50492  87.9188  13.0231 0001631 100.6687 259.4629 13.18686026196680
ONEWEB-0418             
1 50493U 21132AA  25344.10418256  .00000075  00000+0  15829-3 0  9994
2 50493  87.9186  13.0056 0001470 108.7331 251.3961 13.18685528196743
ONEWEB-0419             
1 50494U 21132AB  25344.12247291  .00000027  00000+0  36305-4 0  9996
2 50494  87.9183  13.0018 0001459  94.9710 265.1589 13.18686017196667
ONEWEB-0420             
1 50495U 21132AC  25344.08782149 -.00000006  00000+0 -47313-4 0  9998
2 50495  87.9185  13.0204 0001945  91.3442 268.7913 13.18684841196652
ONEWEB-0421             
1 50496U 21132AD  25344.08123149 -.00000002  00000+0 -37343-4 0  9996
2 50496  87.9183  13.0146 0002016 100.9861 259.1498 13.18684798196695
ONEWEB-0424             
1 50497U 21132AE  25344.11752905  .00000059  00000+0  11745-3 0  9996
2 50497  87.9183  13.0030 0001432  88.4856 271.6440 13.18686637196727
ONEWEB-0426             
1 50498U 21132AF  25344.07793024 -.00000054  00000+0 -17014-3 0  9991
2 50498  87.9185  13.0022 0002013 115.2703 244.8638 13.18686213196661
